{"type": "FeatureCollection", "features": [ {"type": "Feature", "properties": {"norad_id": 31805, "name": "FENGYUN 1C DEB", "group": "fengyun-1c-debris", "lat": 81.62858842678666, "lon": -125.86524706550296, "alt_km": 864.0372246053021, "timestamp": "2025-12-05T05:43:15.393637+00:00", "meta": {"OBJECT_NAME": "FENGYUN 1C DEB", "OBJECT_ID": "1999-025CGT", "EPOCH": "2025-12-01T05:23:40.108128", "MEAN_MOTION": 14.02670631, "ECCENTRICITY": 0.0447098, "INCLINATION": 98.3662, "RA_OF_ASC_NODE": 320.3008, "ARG_OF_PERICENTER": 191.6465, "MEAN_ANOMALY": 167.4086, "EPHEMERIS_TYPE": 0, "CLASSIFICATION_TYPE": "U", "NORAD_CAT_ID": 31805, "ELEMENT_SET_NO": 999, "REV_AT_EPOCH": 62202, "BSTAR": 0.0013339, "MEAN_MOTION_DOT": 4.977e-05, "MEAN_MOTION_DDOT": 0}, "tle": {"line1": "1 31805U 99025CGT 25335.22476977  .00004977  00000+0  13339-2 0  9991", "line2": "2 31805  98.3662 320.3008 0447098 191.6465 167.4086 14.02670631622027"}}, "geometry": {"type": "Point", "coordinates": [-125.86524706550296, 81.62858842678666]}}, {"type": "Feature", "properties": {"norad_id": 31807, "name": "FENGYUN 1C DEB", "group": "fengyun-1c-debris", "lat": 17.205691988313266, "lon": -67.57902464368492, "alt_km": 650.4554583508661, "timestamp": "2025-12-05T05:43:15.393648+00:00", "meta": {"OBJECT_NAME": "FENGYUN 1C DEB", "OBJECT_ID": "1999-025CGV", "EPOCH": "2025-12-04T02:30:33.983136", "MEAN_MOTION": 14.51918423, "ECCENTRICITY": 0.01055508, "INCLINATION": 99.0768, "RA_OF_ASC_NODE": 108.359, "ARG_OF_PERICENTER": 188.356, "MEAN_ANOMALY": 171.5879, "EPHEMERIS_TYPE": 0, "CLASSIFICATION_TYPE": "U", "NORAD_CAT_ID": 31807, "ELEMENT_SET_NO": 999, "REV_AT_EPOCH": 65180, "BSTAR": 0.0021745079, "MEAN_MOTION_DOT": 9.385e-05, "MEAN_MOTION_DDOT": 0}, "tle": {"line1": "1 31807U 99025CGV 25338.10455999  .00009385  00000+0  21745-2 0  9992", "line2": "2 31807  99.0768 108.3590 0105550 188.3560 171.5879 14.51918423651809"}}, "geometry": {"type": "Point", "coordinates": [-67.57902464368492, 17.205691988313266]}}, {"type": "Feature", "properties": {"norad_id": 31808, "name": "FENGYUN 1C DEB", "group": "fengyun-1c-debris", "lat": 79.76401272242113, "lon": 101.54840677470027, "alt_km": 691.5349204601662, "timestamp": "2025-12-05T05:43:15.393658+00:00", "meta": {"OBJECT_NAME": "FENGYUN 1C DEB", "OBJECT_ID": "1999-025CGW", "EPOCH": "2025-12-03T07:09:51.542208", "MEAN_MOTION": 14.56458132, "ECCENTRICITY": 0.0037987, "INCLINATION": 99.2042, "RA_OF_ASC_NODE": 163.2972, "ARG_OF_PERICENTER": 170.223, "MEAN_ANOMALY": 189.9712, "EPHEMERIS_TYPE": 0, "CLASSIFICATION_TYPE": "U", "NORAD_CAT_ID": 31808, "ELEMENT_SET_NO": 999, "REV_AT_EPOCH": 57465, "BSTAR": 0.0070427, "MEAN_MOTION_DOT": 0.00031692, "MEAN_MOTION_DDOT": 0}, "tle": {"line1": "1 31808U 99025CGW 25337.29851322  .00031692  00000+0  70427-2 0  9999", "line2": "2 31808  99.2042 163.2972 0037987 170.2230 189.9712 14.56458132574650"}}, "geometry": {"type": "Point", "coordinates": [101.54840677470027, 79.76401272242113]}}, {"type": "Feature", "properties": {"norad_id": 31810, "name": "FENGYUN 1C DEB", "group": "fengyun-1c-debris", "lat": -42.96231746948501, "lon": 167.02320612420255, "alt_km": 668.078426391372, "timestamp": "2025-12-05T05:43:15.393669+00:00", "meta": {"OBJECT_NAME": "FENGYUN 1C DEB", "OBJECT_ID": "1999-025CGY", "EPOCH": "2025-12-02T18:34:02.794944", "MEAN_MOTION": 14.45755419, "ECCENTRICITY": 0.02141225, "INCLINATION": 98.2699, "RA_OF_ASC_NODE": 352.4032, "ARG_OF_PERICENTER": 170.6735, "MEAN_ANOMALY": 189.8534, "EPHEMERIS_TYPE": 0, "CLASSIFICATION_TYPE": "U", "NORAD_CAT_ID": 31810, "ELEMENT_SET_NO": 999, "REV_AT_EPOCH": 64270, "BSTAR": 0.00070820977, "MEAN_MOTION_DOT": 3.284e-05, "MEAN_MOTION_DDOT": 0}, "tle": {"line1": "1 31810U 99025CGY 25336.77364346  .00003284  00000+0  70821-3 0  9994", "line2": "2 31810  98.2699 352.4032 0214122 170.6735 189.8534 14.45755419642700"}}, "geometry": {"type": "Point", "coordinates": [167.02320612420255, -42.96231746948501]}}, {"type": "Feature", "properties": {"norad_id": 31813, "name": "FENGYUN 1C DEB", "group": "fengyun-1c-debris", "lat": 36.6694422169445, "lon": 50.77569551562977, "alt_km": 650.4644609804227, "timestamp": "2025-12-05T05:43:15.393680+00:00", "meta": {"OBJECT_NAME": "FENGYUN 1C DEB", "OBJECT_ID": "1999-025CHB", "EPOCH": "2025-12-04T11:20:01.254336", "MEAN_MOTION": 14.49739183, "ECCENTRICITY": 0.0136604, "INCLINATION": 99.4278, "RA_OF_ASC_NODE": 57.0258, "ARG_OF_PERICENTER": 358.2067, "MEAN_ANOMALY": 1.8616, "EPHEMERIS_TYPE": 0, "CLASSIFICATION_TYPE": "U", "NORAD_CAT_ID": 31813, "ELEMENT_SET_NO": 999, "REV_AT_EPOCH": 97136, "BSTAR": 0.00072688, "MEAN_MOTION_DOT": 3.093e-05, "MEAN_MOTION_DDOT": 0}, "tle": {"line1": "1 31813U 99025CHB 25338.47223674  .00003093  00000+0  72688-3 0  9995", "line2": "2 31813  99.4278  57.0258 0136604 358.2067   1.8616 14.49739183971362"}}, "geometry": {"type": "Point", "coordinates": [50.77569551562977, 36.6694422169445]}}, {"type": "Feature", "properties": {"norad_id": 31814, "name": "FENGYUN 1C DEB", "group": "fengyun-1c-debris", "lat": -62.83850588529618, "lon": 48.41202764380226, "alt_km": 933.9146977596029, "timestamp": "2025-12-05T05:43:15.393690+00:00", "meta": {"OBJECT_NAME": "FENGYUN 1C DEB", "OBJECT_ID": "1999-025CHC", "EPOCH": "2025-11-24T20:29:55.792608", "MEAN_MOTION": 13.66443116, "ECCENTRICITY": 0.0229144, "INCLINATION": 99.5736, "RA_OF_ASC_NODE": 18.9365, "ARG_OF_PERICENTER": 261.41, "MEAN_ANOMALY": 96.1022, "EPHEMERIS_TYPE": 0, "CLASSIFICATION_TYPE": "U", "NORAD_CAT_ID": 31814, "ELEMENT_SET_NO": 999, "REV_AT_EPOCH": 61555, "BSTAR": 0.00071428, "MEAN_MOTION_DOT": 6.63e-06, "MEAN_MOTION_DDOT": 0}, "tle": {"line1": "1 31814U 99025CHC 25328.85411797  .00000663  00000+0  71428-3 0  9993", "line2": "2 31814  99.5736  18.9365 0229144 261.4100  96.1022 13.66443116615553"}}, "geometry": {"type": "Point", "coordinates": [48.41202764380226, -62.83850588529618]}}, {"type": "Feature", "properties": {"norad_id": 31815, "name": "FENGYUN 1C DEB", "group": "fengyun-1c-debris", "lat": 30.247636645198465, "lon": -39.41109164104976, "alt_km": 814.641640024849, "timestamp": "2025-12-05T05:43:15.393701+00:00", "meta": {"OBJECT_NAME": "FENGYUN 1C DEB", "OBJECT_ID": "1999-025CHD", "EPOCH": "2025-12-04T05:44:21.650208", "MEAN_MOTION": 14.10277939, "ECCENTRICITY": 0.0059607, "INCLINATION": 98.7675, "RA_OF_ASC_NODE": 324.7779, "ARG_OF_PERICENTER": 46.0343, "MEAN_ANOMALY": 314.5722, "EPHEMERIS_TYPE": 0, "CLASSIFICATION_TYPE": "U", "NORAD_CAT_ID": 31815, "ELEMENT_SET_NO": 999, "REV_AT_EPOCH": 95419, "BSTAR": 0.00011706, "MEAN_MOTION_DOT": 1.68e-06, "MEAN_MOTION_DDOT": 0}, "tle": {"line1": "1 31815U 99025CHD 25338.23913947  .00000168  00000+0  11706-3 0  9994", "line2": "2 31815  98.7675 324.7779 0059607  46.0343 314.5722 14.10277939954193"}}, "geometry": {"type": "Point", "coordinates": [-39.41109164104976, 30.247636645198465]}}, {"type": "Feature", "properties": {"norad_id": 31816, "name": "FENGYUN 1C DEB", "group": "fengyun-1c-debris", "lat": 77.83591157730021, "lon": -39.07025527441901, "alt_km": 884.7107359471238, "timestamp": "2025-12-05T05:43:15.393711+00:00", "meta": {"OBJECT_NAME": "FENGYUN 1C DEB", "OBJECT_ID": "1999-025CHE", "EPOCH": "2025-11-23T07:26:54.652128", "MEAN_MOTION": 13.94096492, "ECCENTRICITY": 0.01210461, "INCLINATION": 98.9829, "RA_OF_ASC_NODE": 82.1237, "ARG_OF_PERICENTER": 207.0018, "MEAN_ANOMALY": 180.5984, "EPHEMERIS_TYPE": 0, "CLASSIFICATION_TYPE": "U", "NORAD_CAT_ID": 31816, "ELEMENT_SET_NO": 999, "REV_AT_EPOCH": 93423, "BSTAR": 0.0012545957, "MEAN_MOTION_DOT": 1.723e-05, "MEAN_MOTION_DDOT": 0}, "tle": {"line1": "1 31816U 99025CHE 25327.31035477  .00001723  00000+0  12546-2 0  9995", "line2": "2 31816  98.9829  82.1237 0121046 207.0018 180.5984 13.94096492934234"}}, "geometry": {"type": "Point", "coordinates": [-39.07025527441901, 77.83591157730021]}}, {"type": "Feature", "properties": {"norad_id": 31817, "name": "FENGYUN 1C DEB", "group": "fengyun-1c-debris", "lat": -22.111999434956683, "lon": 151.30531238202698, "alt_km": 691.221066054135, "timestamp": "2025-12-05T05:43:15.393721+00:00", "meta": {"OBJECT_NAME": "FENGYUN 1C DEB", "OBJECT_ID": "1999-025CHF", "EPOCH": "2025-12-04T05:51:59.274720", "MEAN_MOTION": 14.65485668, "ECCENTRICITY": 0.0062928, "INCLINATION": 98.9183, "RA_OF_ASC_NODE": 333.8855, "ARG_OF_PERICENTER": 101.357, "MEAN_ANOMALY": 259.4709, "EPHEMERIS_TYPE": 0, "CLASSIFICATION_TYPE": "U", "NORAD_CAT_ID": 31817, "ELEMENT_SET_NO": 999, "REV_AT_EPOCH": 71281, "BSTAR": 0.0028956, "MEAN_MOTION_DOT": 0.00016126, "MEAN_MOTION_DDOT": 0}, "tle": {"line1": "1 31817U 99025CHF 25338.24443605  .00016126  00000+0  28956-2 0  9991", "line2": "2 31817  98.9183 333.8855 0062928 101.3570 259.4709 14.65485668712817"}}, "geometry": {"type": "Point", "coordinates": [151.30531238202698, -22.111999434956683]}}, {"type": "Feature", "properties": {"norad_id": 31819, "name": "FENGYUN 1C DEB", "group": "fengyun-1c-debris", "lat": 1.7854790408725008, "lon": -29.523567997359873, "alt_km": 734.5964995326258, "timestamp": "2025-12-05T05:43:15.393731+00:00", "meta": {"OBJECT_NAME": "FENGYUN 1C DEB", "OBJECT_ID": "1999-025CHH", "EPOCH": "2025-12-01T19:26:11.468544", "MEAN_MOTION": 14.30134028, "ECCENTRICITY": 0.00875682, "INCLINATION": 98.4736, "RA_OF_ASC_NODE": 327.4043, "ARG_OF_PERICENTER": 352.8381, "MEAN_ANOMALY": 7.1544, "EPHEMERIS_TYPE": 0, "CLASSIFICATION_TYPE": "U", "NORAD_CAT_ID": 31819, "ELEMENT_SET_NO": 999, "REV_AT_EPOCH": 96537, "BSTAR": 0.00045097789, "MEAN_MOTION_DOT": 1.173e-05, "MEAN_MOTION_DDOT": 0}, "tle": {"line1": "1 31819U 99025CHH 25335.80985496  .00001173  00000+0  45098-3 0  9994", "line2": "2 31819  98.4736 327.4043 0087568 352.8381   7.1544 14.30134028965375"}}, "geometry": {"type": "Point", "coordinates": [-29.523567997359873, 1.7854790408725008]}}]}